NORAD_CAT_ID,OBJECT_NAME,OBJECT_TYPE,EPOCH,MEAN_MOTION,ECCENTRICITY,INCLINATION,RA_OF_ASC_NODE,ARG_OF_PERICENTER,MEAN_ANOMALY,BSTAR,MEAN_MOTION_DOT,MEAN_MOTION_DDOT,TLE_LINE0,TLE_LINE1,TLE_LINE2,SEMIMAJOR_AXIS,PERIOD,APOGEE,PERIGEE,DECAYED
52367.0,STARLINK-3817,PAYLOAD,2024-05-24 23:48:58,15.08816544,6.93e-05,53.2157,243.6808,101.622,258.485,-0.00038172,-6.353e-05,0.0,0 STARLINK-3817,1 52367U 22045AN  24145.99234903 -.00006353  00000-0 -38172-3 0  9994,2 52367  53.2157 243.6808 0000693 101.6220 258.4850 15.08816544117237,6917.952,95.439,540.296,539.338,0.0
52367.0,STARLINK-3817,PAYLOAD,2024-05-25 12:32:04,15.08827936,0.0001294,53.2158,241.3046,77.1143,282.9994,-0.00013427,-2.423e-05,0.0,0 STARLINK-3817,1 52367U 22045AN  24146.52226994 -.00002423  00000-0 -13427-3 0  9995,2 52367  53.2158 241.3046 0001294  77.1143 282.9994 15.08827936117313,6917.917,95.438,540.677,538.887,0.0
52367.0,STARLINK-3817,PAYLOAD,2024-05-25 14:07:26,15.0883745,0.00011,53.2161,241.0068,81.7734,278.3383,7.605e-06,-1.67e-06,0.0,0 STARLINK-3817,1 52367U 22045AN  24146.58850485 -.00000167  00000-0  76050-5 0  9994,2 52367  53.2161 241.0068 0001100  81.7734 278.3383 15.08837450117325,6917.888,95.438,540.514,538.992,0.0
52367.0,STARLINK-3817,PAYLOAD,2024-05-26 12:22:50,15.0884281,0.000144,53.216,236.8434,73.8163,286.2988,7.0469e-05,8.34e-06,0.0,0 STARLINK-3817,1 52367U 22045AN  24147.51586664  .00000834  00000-0  70469-4 0  9990,2 52367  53.2160 236.8434 0001440  73.8163 286.2988 15.08842810117468,6917.872,95.437,540.733,538.741,0.0
52367.0,STARLINK-3817,PAYLOAD,2024-05-26 23:30:32,15.08849744,9.76e-05,53.2161,234.7632,73.7308,286.3791,6.1591e-05,6.93e-06,0.0,0 STARLINK-3817,1 52367U 22045AN  24147.97954152  .00000693  00000-0  61591-4 0  9990,2 52367  53.2161 234.7632 0000976  73.7308 286.3791 15.08849744117533,6917.851,95.437,540.391,539.04,0.0
52367.0,STARLINK-3817,PAYLOAD,2024-05-27 12:13:37,15.08844413,0.000132,53.2159,232.3842,69.2277,290.8857,0.0002428,3.579e-05,0.0,0 STARLINK-3817,1 52367U 22045AN  24148.50946744  .00003579  00000-0  24280-3 0  9997,2 52367  53.2159 232.3842 0001320  69.2277 290.8857 15.08844413117616,6917.867,95.437,540.645,538.819,0.0
52367.0,STARLINK-3817,PAYLOAD,2024-05-27 15:24:24,15.088384,0.0001361,53.2158,231.79,65.731,294.3825,0.00014027,1.945e-05,0.0,0 STARLINK-3817,1 52367U 22045AN  24148.64195077  .00001945  00000-0  14027-3 0  9990,2 52367  53.2158 231.7900 0001361  65.7310 294.3825 15.08838400117632,6917.885,95.438,540.692,538.809,0.0
52367.0,STARLINK-3817,PAYLOAD,2024-05-28 05:42:54,15.08813548,0.0001437,53.2168,229.1107,96.9976,263.118,-0.00026069,-4.431e-05,0.0,0 STARLINK-3817,1 52367U 22045AN  24149.23813009 -.00004431  00000-0 -26069-3 0  9992,2 52367  53.2168 229.1107 0001437  96.9976 263.1180 15.08813548117725,6917.961,95.439,540.82,538.832,0.0
52367.0,STARLINK-3817,PAYLOAD,2024-05-28 12:04:26,15.08836699,0.0001318,53.2161,227.9223,90.4195,269.6948,0.00010645,1.407e-05,0.0,0 STARLINK-3817,1 52367U 22045AN  24149.50308171  .00001407  00000-0  10645-3 0  9992,2 52367  53.2161 227.9223 0001318  90.4195 269.6948 15.08836699117762,6917.89,95.438,540.667,538.844,0.0
52367.0,STARLINK-3817,PAYLOAD,2024-05-29 05:33:40,15.08850915,0.0001127,53.2148,224.6452,72.5288,287.5827,0.00021989,3.214e-05,0.0,0 STARLINK-3817,1 52367U 22045AN  24150.23171386  .00003214  00000-0  21989-3 0  9991,2 52367  53.2148 224.6452 0001127  72.5288 287.5827 15.08850915117871,6917.847,95.437,540.492,538.932,0.0
52367.0,STARLINK-3817,PAYLOAD,2024-05-29 11:55:12,15.08862546,0.0001233,53.2157,223.4593,80.5845,279.5287,0.00041199,6.279e-05,0.0,0 STARLINK-3817,1 52367U 22045AN  24150.49666782  .00006279  00000-0  41199-3 0  9997,2 52367  53.2157 223.4593 0001233  80.5845 279.5287 15.08862546117919,6917.811,95.436,540.529,538.824,0.0
52367.0,STARLINK-3817,PAYLOAD,2024-05-30 10:10:35,15.08858607,0.0001283,53.216,219.2959,96.0456,264.0683,0.00020013,2.9e-05,0.0,0 STARLINK-3817,1 52367U 22045AN  24151.42402603  .00002900  00000-0  20013-3 0  9990,2 52367  53.2160 219.2959 0001283  96.0456 264.0683 15.08858607118055,6917.824,95.436,540.576,538.801,0.0
52367.0,STARLINK-3817,PAYLOAD,2024-05-31 11:36:46,15.08828652,0.0001059,53.215,214.5364,111.7144,248.3961,-8.8082e-05,-1.689e-05,0.0,0 STARLINK-3817,1 52367U 22045AN  24152.48387656 -.00001689  00000-0 -88082-4 0  9993,2 52367  53.2150 214.5364 0001059 111.7144 248.3961 15.08828652118211,6917.915,95.438,540.513,539.047,0.0
52367.0,STARLINK-3817,PAYLOAD,2024-06-01 13:02:56,15.0886414,0.0001038,53.2155,209.7806,71.6961,288.4144,0.00091382,0.00014295,0.0,0 STARLINK-3817,1 52367U 22045AN  24153.54371430  .00014295  00000-0  91382-3 0  9995,2 52367  53.2155 209.7806 0001038  71.6961 288.4144 15.08864140118378,6917.807,95.436,540.39,538.954,0.0
52367.0,STARLINK-3817,PAYLOAD,2024-06-01 20:59:52,15.08854688,8.72e-05,53.2141,208.2936,94.7986,265.3106,0.00055716,8.594e-05,0.0,0 STARLINK-3817,1 52367U 22045AN  24153.87491225  .00008594  00000-0  55716-3 0  9992,2 52367  53.2141 208.2936 0000872  94.7986 265.3106 15.08854688118423,6917.835,95.437,540.304,539.097,0.0
52367.0,STARLINK-3817,PAYLOAD,2024-06-02 09:42:56,15.08863298,0.0001008,53.2139,205.9154,90.7667,269.3441,0.00026432,3.924e-05,0.0,0 STARLINK-3817,1 52367U 22045AN  24154.40482519  .00003924  00000-0  26432-3 0  9993,2 52367  53.2139 205.9154 0001008  90.7667 269.3441 15.08863298118502,6917.809,95.436,540.371,538.977,0.0
52367.0,STARLINK-3817,PAYLOAD,2024-06-02 20:50:38,15.08857073,8.22e-05,53.2141,203.8357,82.7014,277.4071,6.5451e-05,7.55e-06,0.0,0 STARLINK-3817,1 52367U 22045AN  24154.86850191  .00000755  00000-0  65451-4 0  9992,2 52367  53.2141 203.8357 0000822  82.7014 277.4071 15.08857073118577,6917.828,95.436,540.262,539.125,0.0
52367.0,STARLINK-3817,PAYLOAD,2024-06-03 09:33:43,15.08849653,0.0001061,53.2162,201.4558,93.959,266.1523,-0.00015806,-2.803e-05,0.0,0 STARLINK-3817,1 52367U 22045AN  24155.39842472 -.00002803  00000-0 -15806-3 0  9990,2 52367  53.2162 201.4558 0001061  93.9590 266.1523 15.08849653118657,6917.851,95.437,540.45,538.982,0.0
52367.0,STARLINK-3817,PAYLOAD,2024-06-03 20:41:25,15.08844741,0.0001113,53.2174,199.3723,106.7572,253.3543,-0.00011641,-2.14e-05,0.0,0 STARLINK-3817,1 52367U 22045AN  24155.86210582 -.00002140  00000-0 -11641-3 0  9990,2 52367  53.2174 199.3723 0001113 106.7572 253.3543 15.08844741118721,6917.866,95.437,540.501,538.961,0.0
52367.0,STARLINK-3817,PAYLOAD,2024-06-04 09:24:30,15.08848921,8.45e-05,53.2159,196.996,89.9648,270.1441,5.523e-05,5.92e-06,0.0,0 STARLINK-3817,1 52367U 22045AN  24156.39202254  .00000592  00000-0  55230-4 0  9996,2 52367  53.2159 196.9960 0000845  89.9648 270.1441 15.08848921118804,6917.853,95.437,540.303,539.134,0.0
52367.0,STARLINK-3817,PAYLOAD,2024-06-05 02:53:45,15.08839963,9.4e-05,53.2155,193.7245,92.8407,267.2693,7.481e-05,9.03e-06,0.0,0 STARLINK-3817,1 52367U 22045AN  24157.12066710  .00000903  00000-0  74810-4 0  9994,2 52367  53.2155 193.7245 0000940  92.8407 267.2693 15.08839963118917,6917.881,95.438,540.396,539.095,0.0
52367.0,STARLINK-3817,PAYLOAD,2024-06-05 09:15:18,15.08836138,9.41e-05,53.2163,192.5344,97.1137,262.9962,9.31e-05,1.194e-05,0.0,0 STARLINK-3817,1 52367U 22045AN  24157.38562918  .00001194  00000-0  93100-4 0  9999,2 52367  53.2163 192.5344 0000941  97.1137 262.9962 15.08836138118958,6917.892,95.438,540.408,539.106,0.0
52367.0,STARLINK-3817,PAYLOAD,2024-06-06 09:06:06,15.08833686,8.52e-05,53.2152,188.0734,91.5617,268.5473,2.746e-06,-2.44e-06,0.0,0 STARLINK-3817,1 52367U 22045AN  24158.37923686 -.00000244  00000-0  27460-5 0  9995,2 52367  53.2152 188.0734 0000852  91.5617 268.5473 15.08833686119103,6917.9,95.438,540.354,539.175,0.0
52367.0,STARLINK-3817,PAYLOAD,2024-06-07 08:56:52,15.08839647,8.01e-05,53.216,183.6142,89.8211,270.2873,0.00011796,1.59e-05,0.0,0 STARLINK-3817,1 52367U 22045AN  24159.37283357  .00001590  00000-0  11796-3 0  9997,2 52367  53.2160 183.6142 0000801  89.8211 270.2873 15.08839647119253,6917.881,95.438,540.301,539.192,0.0
52367.0,STARLINK-3817,PAYLOAD,2024-06-07 18:29:11,15.08838872,7.96e-05,53.2161,181.8298,85.3984,274.7099,0.00015623,2.2e-05,0.0,0 STARLINK-3817,1 52367U 22045AN  24159.77027456  .00002200  00000-0  15623-3 0  9999,2 52367  53.2161 181.8298 0000796  85.3984 274.7099 15.08838872119312,6917.884,95.438,540.3,539.198,0.0
52367.0,STARLINK-3817,PAYLOAD,2024-06-08 08:47:39,15.08843813,8.41e-05,53.216,179.1535,81.5697,278.539,0.00017189,2.449e-05,0.0,0 STARLINK-3817,1 52367U 22045AN  24160.36643284  .00002449  00000-0  17189-3 0  9993,2 52367  53.2160 179.1535 0000841  81.5697 278.5390 15.08843813119402,6917.869,95.437,540.316,539.152,0.0
52367.0,STARLINK-3817,PAYLOAD,2024-06-08 18:19:58,15.08840834,8.72e-05,53.2149,177.3699,87.899,272.2102,7.9739e-05,9.82e-06,0.0,0 STARLINK-3817,1 52367U 22045AN  24160.76387421  .00000982  00000-0  79739-4 0  9995,2 52367  53.2149 177.3699 0000872  87.8990 272.2102 15.08840834119467,6917.878,95.438,540.346,539.14,0.0
52367.0,STARLINK-3817,PAYLOAD,2024-06-09 08:38:27,15.08836121,8.96e-05,53.2164,174.694,91.1908,268.9187,-4.748e-07,-2.95e-06,0.0,0 STARLINK-3817,1 52367U 22045AN  24161.36004229 -.00000295  00000-0 -47480-6 0  9993,2 52367  53.2164 174.6940 0000896  91.1908 268.9187 15.08836121119555,6917.892,95.438,540.377,539.137,0.0
52367.0,STARLINK-3817,PAYLOAD,2024-06-09 18:10:46,15.0884061,8.89e-05,53.2162,172.9099,85.496,274.6134,1.7886e-05,-3e-08,0.0,0 STARLINK-3817,1 52367U 22045AN  24161.75747916 -.00000003  00000-0  17886-4 0  9994,2 52367  53.2162 172.9099 0000889  85.4960 274.6134 15.08840610119616,6917.879,95.438,540.359,539.129,0.0
52367.0,STARLINK-3817,PAYLOAD,2024-06-10 05:18:27,15.08843581,8.81e-05,53.2161,170.8283,89.0863,271.0231,4.7274e-05,4.65e-06,0.0,0 STARLINK-3817,1 52367U 22045AN  24162.22115609  .00000465  00000-0  47274-4 0  9990,2 52367  53.2161 170.8283 0000881  89.0863 271.0231 15.08843581119687,6917.869,95.437,540.344,539.125,0.0
